COSMOS 2532 (RODNIK-S *)
1 43753U 18097C   26193.30038297  .00000016  00000+0  46529-4 0  9996
2 43753  82.5115 206.5360 0018164   7.1390 352.9945 12.42910356345392
MINXSS-2                
1 43758U 18099A   26192.78887213  .00024308  00000+0  45525-3 0  9998
2 43758  97.4535 269.8221 0008379 170.8889 189.2515 15.48644977417930
SIRION PATHFINDER-2     
1 43759U 18099B   26192.69136833  .00003035  00000+0  16708-3 0  9999
2 43759  97.4245 241.1675 0008128 204.5244 155.5602 15.14760800416330
AISTECHSAT 2            
1 43768U 18099L   26192.97991044  .00002839  00000+0  15256-3 0  9991
2 43768  97.4284 240.4726 0004274 191.0762 169.0378 15.15694393416036
FOX-1CLIFF (AO-95)      
1 43770U 18099N   26193.11057704  .00007092  00000+0  26835-3 0  9998
2 43770  97.4378 253.2714 0007052 252.7613 107.2854 15.27232320417023
RANGE-A                 
1 43773U 18099R   26190.65704564  .00003299  00000+0  18730-3 0  9990
2 43773  97.3959 232.5795 0008493 267.8830  92.1429 15.13579951415899
SNUSAT-2                
1 43782U 18099AA  26193.11879953  .00004672  00000+0  20616-3 0  9991
2 43782  97.4053 246.1228 0009899 198.7770 161.3102 15.22210508416824
SNUGLITE                
1 43784U 18099AC  26193.10330647  .00007154  00000+0  26686-3 0  9995
2 43784  97.3862 247.1441 0003307 167.6677 192.4643 15.27714104417125
ITASAT                  
1 43786U 18099AE  26193.11652162  .00003649  00000+0  17557-3 0  9999
2 43786  97.4020 244.1331 0010803 262.7378  97.2629 15.19358576416698
EAGLET-I                
1 43790U 18099AJ  26193.11777755  .00001999  00000+0  11637-3 0  9999
2 43790  97.4222 242.1267 0009498 256.5989 103.4184 15.13120493416101
ESEO                    
1 43792U 18099AL  26193.05833430  .00001344  00000+0  10055-3 0  9994
2 43792  97.3953 229.3804 0010809 245.9652 114.0444 15.04313700415543
THEA                    
1 43796U 18099AQ  26193.16226932  .00011171  00000+0  32201-3 0  9999
2 43796  97.4439 263.1100 0007724 184.4059 175.7118 15.35866498416524
ASTROCAST 0.1           
1 43798U 18099AS  26192.78726164  .00023019  00000+0  39345-3 0  9990
2 43798  97.4385 272.0791 0005875 144.9859 215.1780 15.51278683418241
JY1SAT (JO-97)          
1 43803U 18099AX  26192.68722269  .00009972  00000+0  30109-3 0  9999
2 43803  97.4124 255.6172 0006517 168.9842 191.1545 15.34443331417382
SUOMI-100               
1 43804U 18099AY  26192.68730980  .00007288  00000+0  26127-3 0  9992
2 43804  97.4182 252.9963 0010197 184.1974 175.9182 15.28978367417168
CENTAURI-1              
1 43809U 18099BD  26193.08198241  .00003411  00000+0  17765-3 0  9992
2 43809  97.4213 244.2684 0012751 236.7539 123.2473 15.16606332416278
GLOBAL-2                
1 43812U 18099BG  26193.07834580  .00001348  00000+0  89459-4 0  9995
2 43812  97.3547 228.5567 0007586  75.7447 284.4625 15.08815557415668
SEAHAWK-1               
1 43820U 18099BQ  26192.64306046  .00005177  00000+0  22168-3 0  9994
2 43820  97.3948 244.7594 0007480 211.7845 148.2941 15.23202069416258
SAUDISAT 5A             
1 43831U 18102A   26193.30902487  .00003344  00000+0  12379-3 0  9993
2 43831  97.3058 254.4076 0010674  52.8191 307.4022 15.28302608419518
SAUDISAT 5B             
1 43833U 18102C   26193.32375492  .00003021  00000+0  11126-3 0  9998
2 43833  97.3168 257.5373 0011442  54.1427 306.0874 15.28546441419635
ISAT                    
1 43879U 18111D   26192.80088528  .00078043  00000+0  63878-3 0  9998
2 43879  97.5861 130.0063 0007139 146.3017 213.8700 15.70261010415020
UWE-4                   
1 43880U 18111E   26193.24905298  .00020464  00000+0  39697-3 0  9997
2 43880  97.5842 122.8225 0005734 206.6658 153.4298 15.47689372414658
D-STAR ONE (SPARROW)    
1 43881U 18111F   26192.78835271  .00172546  00000+0  77361-3 0  9998
2 43881  97.6096 136.1309 0006711 142.9832 217.1901 15.83665674415259
JILIN-1 09              
1 43943U 19005B   26193.31736173  .00002591  00000+0  12096-3 0  9997
2 43943  97.4746 288.0689 0002568  42.1453 317.9980 15.20725931412967
JILIN-1 10              
1 43946U 19005E   26193.30895723  .00003530  00000+0  14014-3 0  9992
2 43946  97.4796 292.1183 0008293 179.5417 180.5830 15.25987103413141
EGYPTSAT-A (MISRSAT-A)  
1 44047U 19008A   26193.28877992  .00000376  00000+0  67331-4 0  9999
2 44047  98.0188 257.7126 0001692  95.7641 264.3760 14.72334876396938
EMISAT                  
1 44078U 19018A   26193.30347498 -.00000004  00000+0  11808-4 0  9997
2 44078  98.4640 251.9640 0019197 139.4293 220.8333 14.43648242383688
JILIN-1 GAOFEN 3A       
1 44312U 19032C   26193.30473587  .00005418  00000+0  17538-3 0  9991
2 44312  44.9730 218.6432 0004697  82.8805 277.2614 15.33153607391697
WT 1B                   
1 44316U 19032G   26193.31327796  .00006889  00000+0  26024-3 0  9999
2 44316  44.9734 283.7399 0008685  18.3409 341.7785 15.27691181390923
